NORAD_CAT_ID,OBJECT_NAME,OBJECT_TYPE,EPOCH,MEAN_MOTION,ECCENTRICITY,INCLINATION,RA_OF_ASC_NODE,ARG_OF_PERICENTER,MEAN_ANOMALY,BSTAR,MEAN_MOTION_DOT,MEAN_MOTION_DDOT,TLE_LINE0,TLE_LINE1,TLE_LINE2,SEMIMAJOR_AXIS,PERIOD,APOGEE,PERIGEE,DECAYED
53836.0,STARLINK-4778,PAYLOAD,2023-08-08 00:09:32,15.08840676,0.0001233,53.2158,215.1672,91.9471,268.1662,3.4376e-05,2.59e-06,0.0,0 STARLINK-4778,1 53836U 22114U   23220.00662762  .00000259  00000-0  34376-4 0  9996,2 53836  53.2158 215.1672 0001233  91.9471 268.1662 15.08840676 49813,6917.878,95.438,540.596,538.89,0.0
53836.0,STARLINK-4778,PAYLOAD,2023-08-09 01:35:43,15.0883529,0.0001199,53.2162,210.411,88.7388,271.3741,6.6891e-05,7.77e-06,0.0,0 STARLINK-4778,1 53836U 22114U   23221.06647094  .00000777  00000-0  66891-4 0  9996,2 53836  53.2162 210.4110 0001199  88.7388 271.3741 15.08835290 49972,6917.895,95.438,540.589,538.93,0.0
53836.0,STARLINK-4778,PAYLOAD,2023-08-10 09:23:25,15.08839602,0.0001222,53.216,204.4639,93.4595,266.6537,4.1251e-05,3.69e-06,0.0,0 STARLINK-4778,1 53836U 22114U   23222.39127111  .00000369  00000-0  41251-4 0  9996,2 53836  53.2160 204.4639 0001222  93.4595 266.6537 15.08839602 50174,6917.882,95.438,540.592,538.901,0.0
53836.0,STARLINK-4778,PAYLOAD,2023-08-11 01:17:17,15.08834685,0.0001643,53.2164,201.4902,107.1922,252.925,4.9733e-06,-2.09e-06,0.0,0 STARLINK-4778,1 53836U 22114U   23223.05367697 -.00000209  00000-0  49733-5 0  9993,2 53836  53.2164 201.4902 0001643 107.1922 252.9250 15.08834685 50279,6917.897,95.438,540.898,538.625,0.0
53836.0,STARLINK-4778,PAYLOAD,2023-08-12 07:29:36,15.08844632,0.0001284,53.2165,195.8402,88.0105,272.1034,8.9773e-05,1.141e-05,0.0,0 STARLINK-4778,1 53836U 22114U   23224.31223156  .00001141  00000-0  89773-4 0  9996,2 53836  53.2165 195.8402 0001284  88.0105 272.1034 15.08844632 50460,6917.866,95.437,540.619,538.843,0.0
53836.0,STARLINK-4778,PAYLOAD,2023-08-12 15:26:33,15.08835837,0.0001287,53.2164,194.3526,83.2578,276.8561,4.5364e-05,4.34e-06,0.0,0 STARLINK-4778,1 53836U 22114U   23224.64343833  .00000434  00000-0  45364-4 0  9999,2 53836  53.2164 194.3526 0001287  83.2578 276.8561 15.08835837 50513,6917.893,95.438,540.648,538.868,0.0
53836.0,STARLINK-4778,PAYLOAD,2023-08-14 04:00:25,15.08841211,0.0001221,53.2158,187.5131,87.4107,272.7024,6.5771e-05,7.59e-06,0.0,0 STARLINK-4778,1 53836U 22114U   23226.16695630  .00000759  00000-0  65771-4 0  9997,2 53836  53.2158 187.5131 0001221  87.4107 272.7024 15.08841211 50741,6917.877,95.437,540.586,538.897,0.0
53836.0,STARLINK-4778,PAYLOAD,2023-08-14 07:11:10,15.08847895,0.0001237,53.2164,186.9185,85.515,274.5983,6.2515e-05,7.07e-06,0.0,0 STARLINK-4778,1 53836U 22114U   23226.29943220  .00000707  00000-0  62515-4 0  9998,2 53836  53.2164 186.9185 0001237  85.5150 274.5983 15.08847895 50764,6917.856,95.437,540.577,538.866,0.0
53836.0,STARLINK-4778,PAYLOAD,2023-08-15 02:15:49,15.0883203,0.0001306,53.2168,183.3507,89.0757,271.0384,0.00021028,3.06e-05,0.0,0 STARLINK-4778,1 53836U 22114U   23227.09431886  .00003060  00000-0  21028-3 0  9995,2 53836  53.2168 183.3507 0001306  89.0757 271.0384 15.08832030 50881,6917.905,95.438,540.673,538.866,0.0
53836.0,STARLINK-4778,PAYLOAD,2023-08-15 07:01:57,15.08849414,0.0001383,53.2173,182.4589,91.5926,268.5225,0.00011063,1.474e-05,0.0,0 STARLINK-4778,1 53836U 22114U   23227.29302889  .00001474  00000-0  11063-3 0  9992,2 53836  53.2173 182.4589 0001383  91.5926 268.5225 15.08849414 50911,6917.852,95.437,540.673,538.76,0.0
53836.0,STARLINK-4778,PAYLOAD,2023-08-16 02:06:36,15.0883855,0.0001438,53.2175,178.8909,95.3054,264.8103,1.7668e-05,-7e-08,0.0,0 STARLINK-4778,1 53836U 22114U   23228.08791893 -.00000007  00000-0  17668-4 0  9997,2 53836  53.2175 178.8909 0001438  95.3054 264.8103 15.08838550 51030,6917.885,95.438,540.745,538.755,0.0
53836.0,STARLINK-4778,PAYLOAD,2023-08-17 03:32:45,15.0884853,0.00013,53.2168,174.1344,93.6057,266.5084,6.5822e-05,7.6e-06,0.0,0 STARLINK-4778,1 53836U 22114U   23229.14775178  .00000760  00000-0  65822-4 0  9993,2 53836  53.2168 174.1344 0001300  93.6057 266.5084 15.08848530 51199,6917.854,95.437,540.619,538.82,0.0
53836.0,STARLINK-4778,PAYLOAD,2023-08-18 03:23:33,15.08832463,0.0001389,53.2175,169.675,92.9293,267.1858,3.0431e-05,1.96e-06,0.0,0 STARLINK-4778,1 53836U 22114U   23230.14136466  .00000196  00000-0  30431-4 0  9997,2 53836  53.2175 169.6750 0001389  92.9293 267.1858 15.08832463 51349,6917.903,95.438,540.729,538.808,0.0
53836.0,STARLINK-4778,PAYLOAD,2023-08-18 19:17:24,15.0891199,0.0001209,53.2162,166.6968,61.056,299.0553,-0.0010198,-0.00016513,0.0,0 STARLINK-4778,1 53836U 22114U   23230.80375989 -.00016513  00000-0 -10198-2 0  9993,2 53836  53.2162 166.6968 0001209  61.0560 299.0553 15.08911990 51448,6917.66,95.433,540.362,538.689,0.0
53836.0,STARLINK-4778,PAYLOAD,2023-08-19 03:14:20,15.08846695,0.0001258,53.2164,165.2127,89.0999,271.0137,4.1203e-05,3.68e-06,0.0,0 STARLINK-4778,1 53836U 22114U   23231.13495669  .00000368  00000-0  41203-4 0  9990,2 53836  53.2164 165.2127 0001258  89.0999 271.0137 15.08846695 51494,6917.86,95.437,540.595,538.855,0.0
53836.0,STARLINK-4778,PAYLOAD,2023-08-19 12:46:39,15.08836582,0.0001299,53.2165,163.4283,82.0453,278.0687,5.3323e-05,5.61e-06,0.0,0 STARLINK-4778,1 53836U 22114U   23231.53240313  .00000561  00000-0  53323-4 0  9999,2 53836  53.2165 163.4283 0001299  82.0453 278.0687 15.08836582 51559,6917.891,95.438,540.654,538.857,0.0
53836.0,STARLINK-4778,PAYLOAD,2023-08-21 01:20:31,15.08846378,0.0001386,53.2167,156.5887,91.3615,268.7536,9.8869e-05,1.286e-05,0.0,0 STARLINK-4778,1 53836U 22114U   23233.05591778  .00001286  00000-0  98869-4 0  9991,2 53836  53.2167 156.5887 0001386  91.3615 268.7536 15.08846378 51782,6917.861,95.437,540.685,538.767,0.0
53836.0,STARLINK-4778,PAYLOAD,2023-08-22 04:22:05,15.08841174,0.0001364,53.2168,151.533,86.822,273.2929,3.256e-05,2.3e-06,0.0,0 STARLINK-4778,1 53836U 22114U   23234.18200527  .00000230  00000-0  32560-4 0  9999,2 53836  53.2168 151.5330 0001364  86.8220 273.2929 15.08841174 51953,6917.877,95.437,540.685,538.798,0.0
53836.0,STARLINK-4778,PAYLOAD,2023-08-23 08:59:00,15.08872666,0.0001222,53.2164,146.1768,114.2054,245.9066,-0.00039735,-6.612e-05,0.0,0 STARLINK-4778,1 53836U 22114U   23235.37431371 -.00006612  00000-0 -39735-3 0  9996,2 53836  53.2164 146.1768 0001222 114.2054 245.9066 15.08872666 52137,6917.781,95.435,540.491,538.8,0.0
53836.0,STARLINK-4778,PAYLOAD,2023-08-23 23:17:30,15.08835371,0.0001369,53.2171,143.5041,83.0466,277.0682,4.1951e-05,3.8e-06,0.0,0 STARLINK-4778,1 53836U 22114U   23235.97048947  .00000380  00000-0  41951-4 0  9993,2 53836  53.2171 143.5041 0001369  83.0466 277.0682 15.08835371 52763,6917.895,95.438,540.707,538.812,0.0
53836.0,STARLINK-4778,PAYLOAD,2023-08-25 03:54:25,15.08905864,0.0001078,53.2174,138.1516,85.0772,275.0344,-0.00078724,-0.00012817,0.0,0 STARLINK-4778,1 53836U 22114U   23237.16279097 -.00012817  00000-0 -78724-3 0  9995,2 53836  53.2174 138.1516 0001078  85.0772 275.0344 15.08905864 52401,6917.679,95.433,540.29,538.798,0.0
53836.0,STARLINK-4778,PAYLOAD,2023-08-26 02:09:51,15.08804262,0.0001838,53.2191,133.9891,85.3167,274.8035,0.00058025,8.95e-05,0.0,0 STARLINK-4778,1 53836U 22114U   23238.09017946  .00008950  00000-0  58025-3 0  9994,2 53836  53.2191 133.9891 0001838  85.3167 274.8035 15.08804262 52543,6917.99,95.44,541.126,538.583,0.0
53836.0,STARLINK-4778,PAYLOAD,2023-08-26 05:20:36,15.08847651,0.0001461,53.2174,133.3924,81.9861,278.1297,0.00012099,1.639e-05,0.0,0 STARLINK-4778,1 53836U 22114U   23238.22264426  .00001639  00000-0  12099-3 0  9994,2 53836  53.2174 133.3924 0001461  81.9861 278.1297 15.08847651 52568,6917.857,95.437,540.733,538.711,0.0
53836.0,STARLINK-4778,PAYLOAD,2023-08-26 21:14:28,15.08839712,0.0001796,53.219,130.4191,68.3582,291.7601,3.8202e-05,3.2e-06,0.0,0 STARLINK-4778,1 53836U 22114U   23238.88505384  .00000320  00000-0  38202-4 0  9998,2 53836  53.2190 130.4191 0001796  68.3582 291.7601 15.08839712 53201,6917.881,95.438,540.989,538.504,0.0
53836.0,STARLINK-4778,PAYLOAD,2023-08-27 02:00:37,15.08845696,0.000176,53.2185,129.5277,78.3232,281.7957,8.1903e-05,1.016e-05,0.0,0 STARLINK-4778,1 53836U 22114U   23239.08376820  .00001016  00000-0  81903-4 0  9991,2 53836  53.2185 129.5277 0001760  78.3232 281.7957 15.08845696 52696,6917.863,95.437,540.946,538.51,0.0
53836.0,STARLINK-4778,PAYLOAD,2023-08-27 21:05:15,15.08837802,0.0001456,53.2169,125.959,94.1863,265.9295,-1.2995e-05,-4.95e-06,0.0,0 STARLINK-4778,1 53836U 22114U   23239.87865574 -.00000495  00000-0 -12995-4 0  9994,2 53836  53.2169 125.9590 0001456  94.1863 265.9295 15.08837802 53357,6917.887,95.438,540.759,538.745,0.0
53836.0,STARLINK-4778,PAYLOAD,2023-08-28 01:51:24,15.088426,0.0001379,53.2168,125.0676,92.1896,267.9254,2.9798e-05,1.86e-06,0.0,0 STARLINK-4778,1 53836U 22114U   23240.07737190  .00000186  00000-0  29798-4 0  9994,2 53836  53.2168 125.0676 0001379  92.1896 267.9254 15.08842600 52842,6917.872,95.437,540.691,538.783,0.0
53836.0,STARLINK-4778,PAYLOAD,2023-08-28 20:56:02,15.08847526,0.0001403,53.2166,121.4999,87.6322,272.4831,4.6382e-05,4.5e-06,0.0,0 STARLINK-4778,1 53836U 22114U   23240.87224858  .00000450  00000-0  46382-4 0  9996,2 53836  53.2166 121.4999 0001403  87.6322 272.4831 15.08847526 53507,6917.857,95.437,540.693,538.752,0.0
53836.0,STARLINK-4778,PAYLOAD,2023-08-29 01:42:11,15.08852896,0.0001415,53.2166,120.6068,102.0328,258.0823,0.00010318,1.355e-05,0.0,0 STARLINK-4778,1 53836U 22114U   23241.07096248  .00001355  00000-0  10318-3 0  9993,2 53836  53.2166 120.6068 0001415 102.0328 258.0823 15.08852896 52995,6917.841,95.437,540.685,538.727,0.0
53836.0,STARLINK-4778,PAYLOAD,2023-08-29 09:39:07,15.08835951,0.0001496,53.2174,119.1206,87.8871,272.2292,3.8219e-05,3.2e-06,0.0,0 STARLINK-4778,1 53836U 22114U   23241.40217569  .00000320  00000-0  38219-4 0  9993,2 53836  53.2174 119.1206 0001496  87.8871 272.2292 15.08835951 53041,6917.893,95.438,540.793,538.723,0.0
